
STARLINK-4541           
1 53427U 22097AR  25044.58336806  .01282816  00000+0  88467-2 0  9997
2 53427  53.2158  42.7680 0001149  79.6857 254.4872 15.71330861139674
STARLINK-4543           
1 53429U 22097AT  25043.41302672  .00002514  00000+0  17598-3 0  9996
2 53429  53.2171  56.2552 0001694  92.0733 268.0453 15.08836719139866
STARLINK-4538           
1 53430U 22097AU  25044.20053761  .00000940  00000+0  77190-4 0  9994
2 53430  53.2176  52.6420 0001417  87.9069 272.2086 15.08831067139506
STARLINK-4548           
1 53431U 22097AV  25044.22623539  .00001080  00000+0  85913-4 0  9991
2 53431  53.2177  52.1036 0001428  89.8796 270.2360 15.08843262139510
STARLINK-4557           
1 53432U 22097AW  25044.24098477  .00000558  00000+0  53184-4 0  9995
2 53432  53.2172  52.1841 0001332  96.2421 263.8723 15.08831272139510
STARLINK-4549           
1 53433U 22097AX  25044.19685463  .00000089  00000+0  23693-4 0  9998
2 53433  53.2188  52.6187 0001457  86.7377 273.3782 15.08826781139507
STARLINK-4498           
1 53434U 22097AY  25044.17105367 -.00000612  00000+0 -20360-4 0  9999
2 53434  53.2176  52.4568 0001752 100.3918 259.7272 15.08843809139500
STARLINK-4542           
1 53435U 22097AZ  25043.71473006 -.00003005  00000+0 -17079-3 0  9998
2 53435  53.2192  54.5843 0001336  93.4849 266.6296 15.08835343139890
STARLINK-4527           
1 53436U 22097BA  25044.23361173 -.00000455  00000+0 -10507-4 0  9994
2 53436  53.2182  52.1375 0001521  97.3988 262.7177 15.08832864139516
STARLINK-4526           
1 53438U 22097BC  25044.22993012  .00003306  00000+0  22576-3 0  9992
2 53438  53.2173  52.1170 0001039  77.9607 282.1502 15.08832983139517
STARLINK-4519           
1 53439U 22097BD  25044.24194577  .00002552  00000+0  17841-3 0  9995
2 53439  53.2177  52.1835 0001334 101.1950 258.9192 15.08825294139512
DONGPO 07               
1 53444U 22098A   25044.47768251  .00023519  00000+0  82006-3 0  9994
2 53444  97.5254 150.9947 0008743 344.4549  15.6422 15.29598934139248
JILIN-1 GAOFEN 03D09    
1 53445U 22098B   25044.46700935  .00022579  00000+0  81244-3 0  9997
2 53445  97.5281 151.0543 0006119 337.8416  22.2558 15.28597005139215
2022-098C               
1 53446U 22098C   25044.46196200  .00022912  00000+0  82068-3 0  9998
2 53446  97.5310 151.2697 0004295   2.0587 358.0669 15.28751587139214
DONGPO 06               
1 53447U 22098D   25044.45976275  .00029111  00000+0  89556-3 0  9993
2 53447  97.5221 151.3181 0006629 303.6782  56.3827 15.33606102139284
JILIN-1 GAOFEN 03D43    
1 53448U 22098E   25044.44392662  .00024043  00000+0  85015-3 0  9990
2 53448  97.5287 151.0991 0005659 348.3842  11.7266 15.29158727139213
DONGPO 05               
1 53449U 22098F   25044.47990959  .00024288  00000+0  82377-3 0  9996
2 53449  97.5225 150.6534 0004588 330.0405  30.0572 15.30519389139230
DONGPO 03               
1 53450U 22098G   25044.47235028  .00026669  00000+0  86313-3 0  9996
2 53450  97.5291 151.6798 0003486 354.5952   5.5251 15.32016835139255
DONGPO 04               
1 53451U 22098H   25044.47005118  .00028372  00000+0  88086-3 0  9994
2 53451  97.5354 152.9438 0003971 350.8551   9.2618 15.33333280139293
DONGPO 02               
1 53452U 22098J   25044.44019061  .00025013  00000+0  85882-3 0  9994
2 53452  97.5224 150.7508 0004580 316.0653  44.0222 15.30114918139232
DONGPO 01               
1 53453U 22098K   25044.47512632  .00023914  00000+0  83174-3 0  9990
2 53453  97.5292 151.3581 0000835  26.2709 333.8573 15.29712806139233
STARLINK-4415           
1 53465U 22099A   25044.27788027  .00001126  00000+0  92258-4 0  9990
2 53465  97.6528 167.6818 0002534  83.5122 276.6390 15.01253706137806
STARLINK-4398           
1 53466U 22099B   25044.34476896  .00001282  00000+0  10440-3 0  9992
2 53466  97.6556 167.7416 0001716  90.8724 269.2697 15.01258835137809
STARLINK-4394           
1 53467U 22099C   25044.34081410  .00001893  00000+0  15196-3 0  9998
2 53467  97.6550 167.7942 0001776  92.6308 267.5119 15.01262167137805
STARLINK-4400           
1 53468U 22099D   25044.34105680  .00001659  00000+0  13374-3 0  9991
2 53468  97.6510 167.7355 0002795  81.3465 278.8076 15.01263306137804
STARLINK-4399           
1 53469U 22099E   25043.93720610  .00002496  00000+0  19887-3 0  9997
2 53469  97.6549 167.3427 0002007  92.6902 267.4552 15.01260430137505
STARLINK-4393           
1 53470U 22099F   25044.33897423  .00003598  00000+0  28467-3 0  9999
2 53470  97.6547 167.7356 0001912  92.8688 267.2755 15.01247663137806
STARLINK-4316           
1 53471U 22099G   25043.93350437  .00002065  00000+0  16530-3 0  9990
2 53471  97.6541 167.3371 0001910  84.8283 275.3159 15.01254934137508
STARLINK-4447           
1 53472U 22099H   25043.93535527  .00000189  00000+0  19283-4 0  9990
2 53472  97.6544 167.3399 0001811  95.1272 265.0159 15.01256848137507
STARLINK-4383           
1 53473U 22099J   25043.92979831  .00001650  00000+0  13307-3 0  9994
2 53473  97.6528 167.3280 0001585  94.7498 265.3907 15.01254566137501
STARLINK-4445           
1 53474U 22099K   25044.25587714  .00004344  00000+0  34243-3 0  9992
2 53474  97.6538 167.6448 0001049  97.0955 263.0388 15.01278365137793
STARLINK-4389           
1 53475U 22099L   25044.06124797  .00001664  00000+0  13409-3 0  9993
2 53475  97.6536 167.4551 0001649  94.5273 265.6139 15.01258230137764
STARLINK-4378           
1 53476U 22099M   25044.06495501  .00002390  00000+0  19064-3 0  9998
2 53476  97.6535 167.4641 0001575  92.5062 267.6343 15.01259205137768
STARLINK-4412           
1 53477U 22099N   25043.86899303  .00001451  00000+0  12004-3 0  9998
2 53477  97.6537 167.2406 0001641  92.5208 267.6204 15.00441462137734
STARLINK-4433           
1 53478U 22099P   25044.32415123  .00001232  00000+0  10045-3 0  9995
2 53478  97.6550 167.7235 0001270  78.5033 281.6333 15.01262132137806
STARLINK-4436           
1 53479U 22099Q   25044.32224091  .00009509  00000+0  74269-3 0  9991
2 53479  97.6539 167.7105 0001575  96.0320 264.1084 15.01323412137800
STARLINK-4442           
1 53480U 22099R   25044.32600032  .00004284  00000+0  33783-3 0  9997
2 53480  97.6531 167.7154 0001819  91.4956 268.6477 15.01273882137803
STARLINK-4302           
1 53481U 22099S   25044.25379830  .00001388  00000+0  11264-3 0  9991
2 53481  97.6537 167.6416 0000840 102.2085 257.9233 15.01258519137796
STARLINK-4360           
1 53482U 22099T   25043.90942508  .00002034  00000+0  16294-3 0  9998
2 53482  97.6538 167.3250 0001328 243.3489 116.7599 15.01258280137745
STARLINK-4401           
1 53483U 22099U   25043.90757418  .00000976  00000+0  80547-4 0  9999
2 53483  97.6541 167.3136 0001166 242.9534 117.1571 15.01255216137740
STARLINK-4426           
1 53484U 22099V   25043.91867671  .00001242  00000+0  10127-3 0  9997
2 53484  97.6528 167.3073 0000389 225.5342 134.5851 15.01262287137500
STARLINK-4430           
1 53485U 22099W   25043.91313022  .00002382  00000+0  19001-3 0  9990
2 53485  97.6535 167.3038 0001308 249.0229 111.0855 15.01258739137508
STARLINK-4431           
1 53486U 22099X   25044.31676306  .00003012  00000+0  23913-3 0  9991
2 53486  97.6537 167.7024 0000202  75.4406 284.6841 15.01234623137801
STARLINK-4432           
1 53487U 22099Y   25044.31698688 -.00001606  00000+0 -12046-3 0  9993
2 53487  97.6538 167.6857 0001406 260.7830  99.3235 15.01269271137808
STARLINK-4421           
1 53488U 22099Z   25044.58150250  .00001934  00000+0  15509-3 0  9990
2 53488  97.6535 167.9632 0000255 186.5032 173.6189 15.01267477137844
STARLINK-4392           
1 53489U 22099AA  25044.58174786  .00004310  00000+0  33985-3 0  9990
2 53489  97.6534 167.9460 0000696 241.5806 118.5348 15.01272421137843
STARLINK-4387           
1 53490U 22099AB  25043.90967124  .00002162  00000+0  17290-3 0  9997
2 53490  97.6538 167.3017 0001214 242.8976 117.2124 15.01259466137505
STARLINK-4450           
1 53491U 22099AC  25043.90040712 -.00000521  00000+0 -35958-4 0  9994
2 53491  97.6556 167.2969 0003246 231.7969 128.2963 15.01266690137743
STARLINK-4451           
1 53492U 22099AD  25043.90572143  .00001576  00000+0  12731-3 0  9995
2 53492  97.6542 167.2994 0002166 221.4585 138.6475 15.01258163137500
STARLINK-4361           
1 53493U 22099AE  25043.90386851  .00002325  00000+0  18558-3 0  9991
2 53493  97.6541 167.2852 0003252 249.1569 110.9307 15.01260694137744
STARLINK-4340           
1 53494U 22099AF  25044.57425244 -.00001306  00000+0 -96882-4 0  9993
2 53494  97.6489 167.9536 0001788 244.7772 115.3267 15.01352078137844
STARLINK-4429           
1 53495U 22099AG  25044.29822613  .00001304  00000+0  10607-3 0  9990
2 53495  97.6562 167.6836 0002853 224.7497 135.3498 15.01261908137819
STARLINK-4465           
1 53496U 22099AH  25043.90201576  .00001625  00000+0  13110-3 0  9995
2 53496  97.6547 167.2914 0003936 240.5498 119.5334 15.01256998137744
STARLINK-4453           
1 53497U 22099AJ  25044.22786697  .00004117  00000+0  32478-3 0  9991
2 53497  97.6574 167.6183 0002530 235.7932 124.3053 15.01278359137809
STARLINK-4439           
1 53498U 22099AK  25043.89485665  .00001291  00000+0  10513-3 0  9991
2 53498  97.6578 167.3022 0002125 251.3161 108.7832 15.01256780137749
STARLINK-4454           
1 53499U 22099AL  25044.30007866  .00000911  00000+0  75484-4 0  9999
2 53499  97.6552 167.6665 0002928 250.3911 109.6997 15.01261217137801
STARLINK-4455           
1 53500U 22099AM  25043.89646231  .00001742  00000+0  14020-3 0  9991
2 53500  97.6568 167.2890 0002093 241.0949 119.0065 15.01259377137757
STARLINK-4434           
1 53501U 22099AN  25044.35376804 -.00000499  00000+0 -34290-4 0  9992
2 53501  97.6577 167.7600 0001539  69.1148 291.0241 15.01256211137814
